$$SOE
2461295.500000000, A.D. 2026-Sep-12 00:00:00.0000, -4.485180293877971E+08, 3.793369931070863E+07, -1.064359539094200E+07,
2461302.500000000, A.D. 2026-Sep-19 00:00:00.0000, -4.499897259466223E+08, 2.772119992349858E+07, -1.163823465842535E+07,
2461309.500000000, A.D. 2026-Sep-26 00:00:00.0000, -4.512232783149523E+08, 1.749411106845580E+07, -1.262671076609049E+07,
2461316.500000000, A.D. 2026-Oct-03 00:00:00.0000, -4.522192156310659E+08, 7.257885878507071E+06, -1.360853347185181E+07,
2461323.500000000, A.D. 2026-Oct-10 00:00:00.0000, -4.529781859288180E+08, -2.982071554203989E+06, -1.458322088295001E+07,
2461330.500000000, A.D. 2026-Oct-17 00:00:00.0000, -4.535009534687629E+08, -1.322040820847623E+07, -1.555029955890099E+07,
2461337.500000000, A.D. 2026-Oct-24 00:00:00.0000, -4.537883960823819E+08, -2.345182413651431E+07, -1.650930461071004E+07,
2461344.500000000, A.D. 2026-Oct-31 00:00:00.0000, -4.538415024351130E+08, -3.367107450885516E+07, -1.745977981118294E+07,
2461351.500000000, A.D. 2026-Nov-07 00:00:00.0000, -4.536613688732752E+08, -4.387297163119985E+07, -1.840127774165400E+07,
2461358.500000000, A.D. 2026-Nov-14 00:00:00.0000, -4.532491956575930E+08, -5.405238604935611E+07, -1.933335992123664E+07,
2461365.500000000, A.D. 2026-Nov-21 00:00:00.0000, -4.526062843982829E+08, -6.420424606454203E+07, -2.025559669690612E+07,
2461372.500000000, A.D. 2026-Nov-28 00:00:00.0000, -4.517340376941053E+08, -7.432353867171630E+07, -2.116756704908063E+07,
2461379.500000000, A.D. 2026-Dec-05 00:00:00.0000, -4.506339573607952E+08, -8.440531258081430E+07, -2.206885869867305E+07,
2461386.500000000, A.D. 2026-Dec-12 00:00:00.0000, -4.493076410863603E+08, -9.444468021245465E+07, -2.295906827645616E+07,
2461393.500000000, A.D. 2026-Dec-19 00:00:00.0000, -4.477567794014014E+08, -1.044368186655391E+08, -2.383780138105915E+07,
2461400.500000000, A.D. 2026-Dec-26 00:00:00.0000, -4.459831531091504E+08, -1.143769705297875E+08, -2.470467258377784E+07,
2461407.500000000, A.D. 2027-Jan-02 00:00:00.0000, -4.439886309029844E+08, -1.242604447387351E+08, -2.555930542158433E+07,
2461414.500000000, A.D. 2027-Jan-09 00:00:00.0000, -4.417751670580947E+08, -1.340826174469833E+08, -2.640133238785232E+07,
2461421.500000000, A.D. 2027-Jan-16 00:00:00.0000, -4.393447991653977E+08, -1.438389329266186E+08, -2.723039492372321E+07,
2461428.500000000, A.D. 2027-Jan-23 00:00:00.0000, -4.366996458650804E+08, -1.535249045259531E+08, -2.804614341798516E+07,
2461435.500000000, A.D. 2027-Jan-30 00:00:00.0000, -4.338419043951579E+08, -1.631361157414575E+08, -2.884823723697312E+07,
2461442.500000000, A.D. 2027-Feb-06 00:00:00.0000, -4.307738475325335E+08, -1.726682210654251E+08, -2.963634479591813E+07,
2461449.500000000, A.D. 2027-Feb-13 00:00:00.0000, -4.274978203876046E+08, -1.821169453922070E+08, -3.041014352994300E+07,
2461456.500000000, A.D. 2027-Feb-20 00:00:00.0000, -4.240162394160057E+08, -1.914780827777355E+08, -3.116931961271258E+07,
2461463.500000000, A.D. 2027-Feb-27 00:00:00.0000, -4.203315922526007E+08, -2.007474977714190E+08, -3.191356781400454E+07,
2461470.500000000, A.D. 2027-Mar-06 00:00:00.0000, -4.164464353522619E+08, -2.099211274028940E+08, -3.264259161673020E+07,
2461477.500000000, A.D. 2027-Mar-13 00:00:00.0000, -4.123633910395983E+08, -2.189949817777268E+08, -3.335610327982968E+07,
2461484.500000000, A.D. 2027-Mar-20 00:00:00.0000, -4.080851450980600E+08, -2.279651441198543E+08, -3.405382381229714E+07,
2461491.500000000, A.D. 2027-Mar-27 00:00:00.0000, -4.036144446974370E+08, -2.368277708129356E+08, -3.473548292239991E+07,
2461498.500000000, A.D. 2027-Apr-03 00:00:00.0000, -3.989540964579307E+08, -2.455790914911757E+08, -3.540081896518601E+07,
2461505.500000000, A.D. 2027-Apr-10 00:00:00.0000, -3.941069645900654E+08, -2.542154091587626E+08, -3.604957889236778E+07,
2461512.500000000, A.D. 2027-Apr-17 00:00:00.0000, -3.890759690880429E+08, -2.627331003541261E+08, -3.668151820793200E+07,
2461519.500000000, A.D. 2027-Apr-24 00:00:00.0000, -3.838640838963832E+08, -2.711286154231364E+08, -3.729640094187991E+07,
2461526.500000000, A.D. 2027-May-01 00:00:00.0000, -3.784743347489821E+08, -2.793984788755723E+08, -3.789399966732274E+07,
2461533.500000000, A.D. 2027-May-08 00:00:00.0000, -3.729097963717698E+08, -2.875392890787228E+08, -3.847409552795680E+07,
2461540.500000000, A.D. 2027-May-15 00:00:00.0000, -3.671735905441188E+08, -2.955477163370667E+08, -3.903647806070347E+07,
2461547.500000000, A.D. 2027-May-22 00:00:00.0000, -3.612688865812857E+08, -3.034205019527950E+08, -3.958094488205267E+07,
2461554.500000000, A.D. 2027-May-29 00:00:00.0000, -3.551989008819481E+08, -3.111544597394372E+08, -4.010730166632909E+07,
2461561.500000000, A.D. 2027-Jun-05 00:00:00.0000, -3.489668946568049E+08, -3.187464768598217E+08, -4.061536224140619E+07,
2461568.500000000, A.D. 2027-Jun-12 00:00:00.0000, -3.425761718455906E+08, -3.261935135581543E+08, -4.110494858247007E+07,
2461575.500000000, A.D. 2027-Jun-19 00:00:00.0000, -3.360300775524439E+08, -3.334926027226372E+08, -4.157589074981408E+07,
2461582.500000000, A.D. 2027-Jun-26 00:00:00.0000, -3.293319967190174E+08, -3.406408495418688E+08, -4.202802681765148E+07,
2461589.500000000, A.D. 2027-Jul-03 00:00:00.0000, -3.224853529023746E+08, -3.476354312489492E+08, -4.246120280544625E+07,
2461596.500000000, A.D. 2027-Jul-10 00:00:00.0000, -3.154936071202763E+08, -3.544735969466113E+08, -4.287527261442450E+07,
2461603.500000000, A.D. 2027-Jul-17 00:00:00.0000, -3.083602567268438E+08, -3.611526675539232E+08, -4.327009797566460E+07,
2461610.500000000, A.D. 2027-Jul-24 00:00:00.0000, -3.010888341612649E+08, -3.676700359388658E+08, -4.364554842908114E+07,
2461617.500000000, A.D. 2027-Jul-31 00:00:00.0000, -2.936829051570610E+08, -3.740231670026808E+08, -4.400150135161689E+07,
2461624.500000000, A.D. 2027-Aug-07 00:00:00.0000, -2.861460666114048E+08, -3.802095965654198E+08, -4.433784192194200E+07,
2461631.500000000, A.D. 2027-Aug-14 00:00:00.0000, -2.784819464138612E+08, -3.862269293069111E+08, -4.465446283117734E+07,
2461638.500000000, A.D. 2027-Aug-21 00:00:00.0000, -2.706942046144567E+08, -3.920728391290020E+08, -4.495126407139289E+07,
2461645.500000000, A.D. 2027-Aug-28 00:00:00.0000, -2.627865324992013E+08, -3.977450707384373E+08, -4.522815301858908E+07,
2461652.500000000, A.D. 2027-Sep-04 00:00:00.0000, -2.547626507538554E+08, -4.032414399498861E+08, -4.548504449763197E+07,
2461659.500000000, A.D. 2027-Sep-11 00:00:00.0000, -2.466263081103385E+08, -4.085598333713201E+08, -4.572186075541937E+07,
2461666.500000000, A.D. 2027-Sep-18 00:00:00.0000, -2.383812803412394E+08, -4.136982081226322E+08, -4.593853140788195E+07,
2461673.500000000, A.D. 2027-Sep-25 00:00:00.0000, -2.300313693721459E+08, -4.186545916660191E+08, -4.613499338851699E+07,
2461680.500000000, A.D. 2027-Oct-02 00:00:00.0000, -2.215804024356489E+08, -4.234270817216234E+08, -4.631119090351975E+07,
2461687.500000000, A.D. 2027-Oct-09 00:00:00.0000, -2.130322312438698E+08, -4.280138462736484E+08, -4.646707539629284E+07,
2461694.500000000, A.D. 2027-Oct-16 00:00:00.0000, -2.043907311156082E+08, -4.324131237217209E+08, -4.660260553173330E+07,
2461701.500000000, A.D. 2027-Oct-23 00:00:00.0000, -1.956597997968391E+08, -4.366232231824215E+08, -4.671774722450262E+07,
2461708.500000000, A.D. 2027-Oct-30 00:00:00.0000, -1.868433555976502E+08, -4.406425243299291E+08, -4.681247369561005E+07,
2461715.500000000, A.D. 2027-Nov-06 00:00:00.0000, -1.779453360063734E+08, -4.444694756474419E+08, -4.688676535835916E+07,
2461722.500000000, A.D. 2027-Nov-13 00:00:00.0000, -1.689696987635400E+08, -4.481025931662581E+08, -4.694060952142730E+07,
2461729.500000000, A.D. 2027-Nov-20 00:00:00.0000, -1.599204224918063E+08, -4.515404618806449E+08, -4.697400035435295E+07,
2461736.500000000, A.D. 2027-Nov-27 00:00:00.0000, -1.508015052639268E+08, -4.547817368769205E+08, -4.698693902201453E+07,
2461743.500000000, A.D. 2027-Dec-04 00:00:00.0000, -1.416169631325724E+08, -4.578251432643075E+08, -4.697943372797459E+07,
2461750.500000000, A.D. 2027-Dec-11 00:00:00.0000, -1.323708291722824E+08, -4.606694758716303E+08, -4.695149969483405E+07,
2461757.500000000, A.D. 2027-Dec-18 00:00:00.0000, -1.230671527576081E+08, -4.633135990484832E+08, -4.690315913426504E+07,
2461764.500000000, A.D. 2027-Dec-25 00:00:00.0000, -1.137099989239248E+08, -4.657564465725318E+08, -4.683444122058994E+07,
2461771.500000000, A.D. 2028-Jan-01 00:00:00.0000, -1.043034477676652E+08, -4.679970216482932E+08, -4.674538207034472E+07,
$$EOE